H-2A R/B                
1 28932U 06002B   26157.44183326  .00008972  00000+0  43195-3 0  9994
2 28932  98.2559 312.3010 0049769 299.7774  59.8513 15.17929482107898
RESURS-DK 1             
1 29228U 06021A   26157.85531292  .00002607  00000+0  15267-3 0  9996
2 29228  69.9339   6.2973 0006334 300.4331  59.6209 15.13170757101012
CZ-4B R/B               
1 29507U 06046C   26157.83608856  .00004412  00000+0  21954-3 0  9998
2 29507  97.5454 202.4753 0031500 320.4605  39.4331 15.17707544 73566
CZ-2C R/B               
1 31114U 07010B   26157.56309736  .00000113  00000+0  70506-4 0  9994
2 31114  98.4090 266.4343 0059635  36.8440 323.6813 14.20273789992338
COSMO-SKYMED 1          
1 31598U 07023A   26157.90876138  .00002150  00000+0  19182-3 0  9992
2 31598  97.8860 349.6792 0001291  80.4734 279.6633 14.97054692 28255
COSMOS 2428             
1 31792U 07029A   26157.66589103 -.00000182  00000+0 -71710-4 0  9991
2 31792  70.9377  16.5693 0007283 155.2577 204.8895 14.12930557976666
SL-16 R/B               
1 31793U 07029B   26157.77745409  .00000278  00000+0  16895-3 0  9993
2 31793  70.9758 345.1122 0002249 258.3156 112.7238 14.14849090977979
KORONAS-FOTON           
1 33504U 09003A   26157.91412114  .00011636  00000+0  24131-3 0  9991
2 33504  82.4292 182.9743 0010540 182.0296 178.0911 15.45507879959513
CZ-2C R/B               
1 37731U 11030B   26157.44658524  .00001481  00000+0  19130-3 0  9995
2 37731  97.8651 113.0273 0053725  62.2187  50.9381 14.81445560803234
H-2A R/B                
1 38341U 12025E   26157.65375780  .00003660  00000+0  32897-3 0  9997
2 38341  98.4816 131.9317 0044420  23.0673 337.2527 14.95658028761514
SHIJIAN-16 (SJ-16)      
1 39358U 13057A   26157.91714127  .00001660  00000+0  16374-3 0  9993
2 39358  74.9732  16.1349 0016985 254.5804 105.3508 14.92591270684812
SL-4 R/B                
1 39679U 14021B   26157.56385594  .00015814  00000+0  32507-3 0  9996
2 39679  51.6055 262.8077 0091597  67.3204 293.7434 15.41723399669976
ALOS-2                  
1 39766U 14029A   26157.92660347  .00001433  00000+0  19878-3 0  9991
2 39766  97.9212 255.2373 0001679  89.7986 270.3418 14.79467529650066
YAOGAN-29               
1 41038U 15069A   26157.92263522  .00000724  00000+0  95583-4 0  9995
2 41038  98.0031 186.5393 0002987  70.7085 289.4451 14.83078300569105
ASTRO-H (HITOMI)        
1 41337U 16012A   26157.65950257  .00002773  00000+0  15863-3 0  9992
2 41337  30.9975 142.1764 0009556 148.3935 211.7279 15.10466098565696
HXMT (HUIYAN)           
1 42758U 17034A   26157.93843150  .00005327  00000+0  26285-3 0  9997
2 42758  43.0131 240.1073 0030170  79.4545 280.9700 15.18402182496100
SAOCOM 1A               
1 43641U 18076A   26157.94194322  .00000532  00000+0  73323-4 0  9996
2 43641  97.8884 344.8394 0001510  80.2470 279.8914 14.82167046414588
H-2A R/B                
1 43682U 18084L   26157.83025537  .00022032  00000+0  46776-3 0  9999
2 43682  98.8587  34.4596 0024357  75.2215 285.1725 15.44753789419528
SAOCOM 1B               
1 46265U 20059A   26157.90570079  .00000482  00000+0  67097-4 0  9993
2 46265  97.8888 343.8981 0001518  76.8178 283.3205 14.82163774311967
CSS (TIANHE)            
1 48274U 21035A   26157.67381585  .00028669  00000+0  34211-3 0  9994
2 48274  41.4692  25.9625 0009150 355.7318   4.3441 15.60361832291529
COSMOS 2550             
1 48865U 21056A   26157.98202244  .00006096  00000+0  19153-3 0  9999
2 48865  67.1421 130.7756 0008696 266.6724  93.3436 15.33733170277158
CZ-2C R/B               
1 52794U 22058K   26156.46722230  .00039184  00000+0  44813-3 0  9997
2 52794  50.1841 224.4658 0033215 218.6451 141.2145 15.61032214223819
CZ-2C R/B               
1 54039U 22132E   26157.76937706  .00062680  00000+0  50982-3 0  9995
2 54039  97.2912 164.3376 0017019 116.3837 243.9175 15.70302046204319
GSLV R/B                
1 54149U 22138AN  26157.69148060  .00003323  00000+0  28371-3 0  9998
2 54149  87.3804 136.5095 0021123 180.5244 179.5969 14.97211532197241
XRISM                   
1 57800U 23137A   26157.96116456  .00005296  00000+0  29210-3 0  9993
2 57800  31.0024  65.8375 0007797 222.8626 137.1405 15.12376045151310
ACS3                    
1 59588U 24077B   26157.65330291  .00050007  00000+0  37419-1 0  9991
2 59588  97.1698  78.7933 0047293  67.6130 293.0038 13.93754077106572
CZ-8A R/B               
1 66004U 25231K   26157.08185066 -.00000047  00000+0  41734-4 0  9998
2 66004  50.0038  86.5627 0116476 184.9058 175.0725 14.30151850 33357
SZ-21 MODULE            
1 66515U 25246C   26157.31606433  .00056445  00000+0  36002-3 0  9996
2 66515  41.4728  14.9847 0007184 283.9983  76.0062 15.75457395 32025
